{"type": "FeatureCollection", "features": [ {"type": "Feature", "properties": {"norad_id": 37216, "name": "COSMO-SKYMED 4", "group": "resource", "lat": 5.426345161310215, "lon": -178.55621632756376, "alt_km": 624.5362953042213, "timestamp": "2025-12-27T02:10:15.844854+00:00", "meta": {"OBJECT_NAME": "COSMO-SKYMED 4", "OBJECT_ID": "2010-060A", "EPOCH": "2025-12-26T19:39:55.637280", "MEAN_MOTION": 14.82164892, "ECCENTRICITY": 0.0001415, "INCLINATION": 97.8809, "RA_OF_ASC_NODE": 181.9308, "ARG_OF_PERICENTER": 81.8922, "MEAN_ANOMALY": 278.2452, "EPHEMERIS_TYPE": 0, "CLASSIFICATION_TYPE": "U", "NORAD_CAT_ID": 37216, "ELEMENT_SET_NO": 999, "REV_AT_EPOCH": 81903, "BSTAR": 0.00017467, "MEAN_MOTION_DOT": 1.339e-05, "MEAN_MOTION_DDOT": 0}, "tle": {"line1": "1 37216U 10060A   25360.81939395  .00001339  00000+0  17467-3 0  9992", "line2": "2 37216  97.8809 181.9308 0001415  81.8922 278.2452 14.82164892819039"}}, "geometry": {"type": "Point", "coordinates": [-178.55621632756376, 5.426345161310215]}}, {"type": "Feature", "properties": {"norad_id": 37387, "name": "RESOURCESAT-2", "group": "resource", "lat": 80.88281604722077, "lon": -9.934206962586568, "alt_km": 812.1067070346662, "timestamp": "2025-12-27T02:10:15.844865+00:00", "meta": {"OBJECT_NAME": "RESOURCESAT-2", "OBJECT_ID": "2011-015A", "EPOCH": "2025-12-26T19:00:15.227424", "MEAN_MOTION": 14.21595638, "ECCENTRICITY": 0.0005746, "INCLINATION": 98.7858, "RA_OF_ASC_NODE": 64.2793, "ARG_OF_PERICENTER": 4.0104, "MEAN_ANOMALY": 356.1118, "EPHEMERIS_TYPE": 0, "CLASSIFICATION_TYPE": "U", "NORAD_CAT_ID": 37387, "ELEMENT_SET_NO": 999, "REV_AT_EPOCH": 76168, "BSTAR": 7.573e-05, "MEAN_MOTION_DOT": 1.22e-06, "MEAN_MOTION_DDOT": 0}, "tle": {"line1": "1 37387U 11015A   25360.79184291  .00000122  00000+0  75730-4 0  9993", "line2": "2 37387  98.7858  64.2793 0005746   4.0104 356.1118 14.21595638761684"}}, "geometry": {"type": "Point", "coordinates": [-9.934206962586568, 80.88281604722077]}}, {"type": "Feature", "properties": {"norad_id": 37781, "name": "HAIYANG-2A", "group": "resource", "lat": 80.64679402108904, "lon": -85.62005146917413, "alt_km": 959.5227193846858, "timestamp": "2025-12-27T02:10:15.844875+00:00", "meta": {"OBJECT_NAME": "HAIYANG-2A", "OBJECT_ID": "2011-043A", "EPOCH": "2025-12-26T20:30:49.696704", "MEAN_MOTION": 13.78835276, "ECCENTRICITY": 0.000156, "INCLINATION": 99.3383, "RA_OF_ASC_NODE": 1.5716, "ARG_OF_PERICENTER": 65.3656, "MEAN_ANOMALY": 294.7658, "EPHEMERIS_TYPE": 0, "CLASSIFICATION_TYPE": "U", "NORAD_CAT_ID": 37781, "ELEMENT_SET_NO": 999, "REV_AT_EPOCH": 72293, "BSTAR": -0.000244, "MEAN_MOTION_DOT": -2.92e-06, "MEAN_MOTION_DDOT": 0}, "tle": {"line1": "1 37781U 11043A   25360.85474186 -.00000292  00000+0 -24400-3 0  9991", "line2": "2 37781  99.3383   1.5716 0001560  65.3656 294.7658 13.78835276722930"}}, "geometry": {"type": "Point", "coordinates": [-85.62005146917413, 80.64679402108904]}}, {"type": "Feature", "properties": {"norad_id": 37791, "name": "RASAT", "group": "resource", "lat": 57.858880504507866, "lon": -76.82506659525819, "alt_km": 664.605762728731, "timestamp": "2025-12-27T02:10:15.844885+00:00", "meta": {"OBJECT_NAME": "RASAT", "OBJECT_ID": "2011-044D", "EPOCH": "2025-12-26T21:08:24.493920", "MEAN_MOTION": 14.67928731, "ECCENTRICITY": 0.0021226, "INCLINATION": 98.0637, "RA_OF_ASC_NODE": 89.928, "ARG_OF_PERICENTER": 22.1214, "MEAN_ANOMALY": 71.7064, "EPHEMERIS_TYPE": 0, "CLASSIFICATION_TYPE": "U", "NORAD_CAT_ID": 37791, "ELEMENT_SET_NO": 999, "REV_AT_EPOCH": 76790, "BSTAR": 0.00011803, "MEAN_MOTION_DOT": 6.28e-06, "MEAN_MOTION_DDOT": 0}, "tle": {"line1": "1 37791U 11044D   25360.88083905  .00000628  00000+0  11803-3 0  9995", "line2": "2 37791  98.0637  89.9280 0021226  22.1214  71.7064 14.67928731767905"}}, "geometry": {"type": "Point", "coordinates": [-76.82506659525819, 57.858880504507866]}}, {"type": "Feature", "properties": {"norad_id": 37841, "name": "SRMSAT", "group": "resource", "lat": 19.221367440349077, "lon": 94.82567432836485, "alt_km": 842.0224140481305, "timestamp": "2025-12-27T02:10:15.844895+00:00", "meta": {"OBJECT_NAME": "SRMSAT", "OBJECT_ID": "2011-058D", "EPOCH": "2025-12-26T18:04:39.351072", "MEAN_MOTION": 14.11516169, "ECCENTRICITY": 0.0011981, "INCLINATION": 19.9732, "RA_OF_ASC_NODE": 23.141, "ARG_OF_PERICENTER": 106.5213, "MEAN_ANOMALY": 50.9064, "EPHEMERIS_TYPE": 0, "CLASSIFICATION_TYPE": "U", "NORAD_CAT_ID": 37841, "ELEMENT_SET_NO": 999, "REV_AT_EPOCH": 73342, "BSTAR": 9.6487e-05, "MEAN_MOTION_DOT": 4.42e-06, "MEAN_MOTION_DDOT": 0}, "tle": {"line1": "1 37841U 11058D   25360.75323323  .00000442  00000+0  96487-4 0  9999", "line2": "2 37841  19.9732  23.1410 0011981 106.5213  50.9064 14.11516169733423"}}, "geometry": {"type": "Point", "coordinates": [94.82567432836485, 19.221367440349077]}}, {"type": "Feature", "properties": {"norad_id": 38012, "name": "PLEIADES 1A", "group": "resource", "lat": 25.851206066494708, "lon": -102.36718827979121, "alt_km": 696.7607748300807, "timestamp": "2025-12-27T02:10:15.844906+00:00", "meta": {"OBJECT_NAME": "PLEIADES 1A", "OBJECT_ID": "2011-076F", "EPOCH": "2025-12-26T21:07:37.926912", "MEAN_MOTION": 14.58574102, "ECCENTRICITY": 0.0001058, "INCLINATION": 98.1803, "RA_OF_ASC_NODE": 73.4294, "ARG_OF_PERICENTER": 76.0874, "MEAN_ANOMALY": 54.7869, "EPHEMERIS_TYPE": 0, "CLASSIFICATION_TYPE": "U", "NORAD_CAT_ID": 38012, "ELEMENT_SET_NO": 999, "REV_AT_EPOCH": 74687, "BSTAR": 9.475e-05, "MEAN_MOTION_DOT": 3.95e-06, "MEAN_MOTION_DDOT": 0}, "tle": {"line1": "1 38012U 11076F   25360.88030008  .00000395  00000+0  94750-4 0  9997", "line2": "2 38012  98.1803  73.4294 0001058  76.0874  54.7869 14.58574102746878"}}, "geometry": {"type": "Point", "coordinates": [-102.36718827979121, 25.851206066494708]}}, {"type": "Feature", "properties": {"norad_id": 38038, "name": "ZIYUAN 1-02C (ZY 1-02C)", "group": "resource", "lat": 78.18020787100961, "lon": 21.706088283799694, "alt_km": 752.590686071545, "timestamp": "2025-12-27T02:10:15.844916+00:00", "meta": {"OBJECT_NAME": "ZIYUAN 1-02C (ZY 1-02C)", "OBJECT_ID": "2011-079A", "EPOCH": "2025-12-26T21:17:53.318688", "MEAN_MOTION": 14.38027598, "ECCENTRICITY": 0.0007569, "INCLINATION": 98.4311, "RA_OF_ASC_NODE": 66.6389, "ARG_OF_PERICENTER": 101.5099, "MEAN_ANOMALY": 9.7226, "EPHEMERIS_TYPE": 0, "CLASSIFICATION_TYPE": "U", "NORAD_CAT_ID": 38038, "ELEMENT_SET_NO": 999, "REV_AT_EPOCH": 73444, "BSTAR": 0.00018222, "MEAN_MOTION_DOT": 5.08e-06, "MEAN_MOTION_DDOT": 0}, "tle": {"line1": "1 38038U 11079A   25360.88742267  .00000508  00000+0  18222-3 0  9990", "line2": "2 38038  98.4311  66.6389 0007569 101.5099   9.7226 14.38027598734445"}}, "geometry": {"type": "Point", "coordinates": [21.706088283799694, 78.18020787100961]}}, {"type": "Feature", "properties": {"norad_id": 38338, "name": "ARIRANG-3 (KOMPSAT-3)", "group": "resource", "lat": -33.71403884908093, "lon": 130.17613318928167, "alt_km": 692.7863832010098, "timestamp": "2025-12-27T02:10:15.844926+00:00", "meta": {"OBJECT_NAME": "ARIRANG-3 (KOMPSAT-3)", "OBJECT_ID": "2012-025B", "EPOCH": "2025-12-26T20:15:57.216672", "MEAN_MOTION": 14.61731065, "ECCENTRICITY": 0.0004654, "INCLINATION": 98.3342, "RA_OF_ASC_NODE": 315.5416, "ARG_OF_PERICENTER": 287.4576, "MEAN_ANOMALY": 72.6115, "EPHEMERIS_TYPE": 0, "CLASSIFICATION_TYPE": "U", "NORAD_CAT_ID": 38338, "ELEMENT_SET_NO": 999, "REV_AT_EPOCH": 72616, "BSTAR": 0.00014314, "MEAN_MOTION_DOT": 6.65e-06, "MEAN_MOTION_DDOT": 0}, "tle": {"line1": "1 38338U 12025B   25360.84441223  .00000665  00000+0  14314-3 0  9991", "line2": "2 38338  98.3342 315.5416 0004654 287.4576  72.6115 14.61731065726167"}}, "geometry": {"type": "Point", "coordinates": [130.17613318928167, -33.71403884908093]}}, {"type": "Feature", "properties": {"norad_id": 38709, "name": "EXACTVIEW-1 (ADS-1B)", "group": "resource", "lat": 64.9106822733738, "lon": -50.51732899043373, "alt_km": 809.3182127020345, "timestamp": "2025-12-27T02:10:15.844937+00:00", "meta": {"OBJECT_NAME": "EXACTVIEW-1 (ADS-1B)", "OBJECT_ID": "2012-039C", "EPOCH": "2025-12-26T20:35:03.619392", "MEAN_MOTION": 14.24913654, "ECCENTRICITY": 0.001007, "INCLINATION": 98.9638, "RA_OF_ASC_NODE": 109.5441, "ARG_OF_PERICENTER": 311.5472, "MEAN_ANOMALY": 48.4842, "EPHEMERIS_TYPE": 0, "CLASSIFICATION_TYPE": "U", "NORAD_CAT_ID": 38709, "ELEMENT_SET_NO": 999, "REV_AT_EPOCH": 69816, "BSTAR": 9.226e-05, "MEAN_MOTION_DOT": 1.69e-06, "MEAN_MOTION_DDOT": 0}, "tle": {"line1": "1 38709U 12039C   25360.85768078  .00000169  00000+0  92260-4 0  9995", "line2": "2 38709  98.9638 109.5441 0010070 311.5472  48.4842 14.24913654698166"}}, "geometry": {"type": "Point", "coordinates": [-50.51732899043373, 64.9106822733738]}}, {"type": "Feature", "properties": {"norad_id": 38755, "name": "SPOT 6", "group": "resource", "lat": 74.5291299106413, "lon": 34.40441573039444, "alt_km": 689.9013456299645, "timestamp": "2025-12-27T02:10:15.844947+00:00", "meta": {"OBJECT_NAME": "SPOT 6", "OBJECT_ID": "2012-047A", "EPOCH": "2025-12-26T20:52:51.289248", "MEAN_MOTION": 14.58544385, "ECCENTRICITY": 0.0001221, "INCLINATION": 98.155, "RA_OF_ASC_NODE": 65.3923, "ARG_OF_PERICENTER": 76.5194, "MEAN_ANOMALY": 283.6141, "EPHEMERIS_TYPE": 0, "CLASSIFICATION_TYPE": "U", "NORAD_CAT_ID": 38755, "ELEMENT_SET_NO": 999, "REV_AT_EPOCH": 70793, "BSTAR": 8.309e-05, "MEAN_MOTION_DOT": 3.41e-06, "MEAN_MOTION_DDOT": 0}, "tle": {"line1": "1 38755U 12047A   25360.87003807  .00000341  00000+0  83090-4 0  9992", "line2": "2 38755  98.1550  65.3923 0001221  76.5194 283.6141 14.58544385707932"}}, "geometry": {"type": "Point", "coordinates": [34.40441573039444, 74.5291299106413]}}]}